KLWC 080052Z AUTO 19020G28KT 10SM -RA BKN026 BKN060 19/14 A2969 RMK AO2 PK WND 20032/0041 RAB2356 SLP049 P0000 T01940139
KTOP 080053Z 18012G24KT 10SM BKN023 BKN031 OVC055 19/13 A2967 RMK AO2 SLP044 T01890133
KFOE 080053Z 17014G22KT 10SM BKN021 BKN027 OVC060 19/14 A2967 RMK AO2 PK WND 20029/0024 SLP039 T01940139
KEMP 080053Z AUTO 17019G24KT 10SM -SHRA FEW018 BKN025 OVC065 16/14 	A2966 RMK AO2 PK WND 17031/2358 RAB2355E30 	SLP042 P0000 	T01610144
KHUT 080052Z 16021G28KT 10SM OVC017 18/13 A2959 RMK AO2 PK WND 16032/0019 SLP006 T01780133
KORD 080051Z 17006KT 10SM BKN041 BKN050 OVC150 13/09 A2985 RMK AO2 SLP108 T01330089
KRFD 080054Z 18010KT 10SM BKN055 13/08 A2984 RMK AO2 SLP106 T01280083
KAMA 080053Z 19010KT 10SM CLR 16/M06 A2964 RMK AO2 SLP011 T01611061
KDEN 080053Z 08007KT 10SM FEW050 SCT120 BKN160 03/01 A2959 RMK AO2 SLP006 T00330006